#dP2024  3 30  0  0  0.00000000     289 d+D   IGS20 FIT AIUB
## 2307 518400.00000000   300.00000000 60399 0.0000000000000
+  121   G01G02G03G04G05G06G07G08G09G10G11G12G13G14G15G16G17
+        G18G19G20G21G22G23G24G25G26G27G28G29G30G31G32R01R02
+        R03R04R05R07R08R09R11R12R13R14R15R16R17R18R19R20R21
+        R22R24R25R26E02E03E04E05E07E08E09E10E11E12E13E14E15
+        E18E19E21E24E25E26E27E30E31E33E34E36C06C07C08C09C10
+        C11C12C13C14C16C19C20C21C22C23C24C25C26C27C28C29C30
+        C32C33C34C35C36C37C38C39C40C41C42C43C44C45C46C48J02
+        J03J04  0  0  0  0  0  0  0  0  0  0  0  0  0  0  0
++         5  5  5  5  5  5  5  5  5  5  5  5  5  5  5  6  5
++         5  5  5  5  5  5  5  5  5  5  5  5  5  5  5  5  5
++         5  5  5  5  5  5  5  5  5  5  5  5  5  5  5  5  5
++         5  5  5  6  5  5  5  5  5  5  5  5  5  5  5  5  5
++         5  5  5  5  5  5  5  5  5  5  5  5  5  5  5  5  5
++         5  5  5  5  5  5  5  5  5  5  5  5  5  5  5  5  5
++         5  5  5  5  5  5  5  5  5  5  5  5  5  5  5  5  5
++         5  5  0  0  0  0  0  0  0  0  0  0  0  0  0  0  0
%c M  cc GPS ccc cccc cccc cccc cccc ccccc ccccc ccccc ccccc
%c cc cc ccc ccc cccc cccc cccc cccc ccccc ccccc ccccc ccccc
%f  1.2500000  1.025000000  0.00000000000  0.000000000000000
%f  0.0000000  0.000000000  0.00000000000  0.000000000000000
%i    0    0    0    0      0      0      0      0         0
%i    0    0    0    0      0      0      0      0         0
/* Center for Orbit Determination in Europe (CODE)                              
/* MGEX orbits and clocks for year-day 2024-0900                                
/* Middle day of a 3-day long-arc multi-GNSS solution                           
/* Systems considered: GPS/GLONASS/Galileo/BeiDou/QZSS                          
/* Product reference - DOI 10.48350/185742                                      
/* PCV:IGS20      OL/AL:FES2014b NONE     YN ORB:CoN CLK:CoN                    
*  2024  3 30 22 50  0.00000000
PG01  22196.922728  11418.884612  -9910.336274    176.934446
PG02  14755.777969  13462.673861 -17156.965169   -461.575509
PG03  12335.619364  22649.615000   6468.752405    283.069856
PG04   7369.664812  13887.628891  21407.479774    327.437384
PG05  -5000.761877 -25069.136486   6855.300752   -167.347849
PG06  20014.016979  -6748.465494  16237.655392    344.471253
PG07  26122.523052   6015.666820   1333.456255    -96.345625
PG08    -98.879867  19865.722470 -17520.676902     91.116396
PG09  17337.652622   1112.852293  20026.767417    143.073438
PG10 -13221.582963   6409.977236 -21903.341091     -3.943850
PG11   8077.600528 -13332.168208  21522.055253   -622.514147
PG12 -10275.923840 -23888.916928   5268.944331   -492.102829
PG13  10238.560047 -20742.964491 -13046.306689    638.655312
PG14  15499.207286  -2254.615867 -21436.894742    364.009815
PG15  -2574.057696 -20148.809629 -17502.037228    143.241201
PG16  -1510.522890  23962.600840  10507.739197   -328.624253
PG17  21360.646620 -10604.765653 -11435.191954    711.559056
PG18 -26141.093331  -5234.388197   -428.635529   -585.643217
PG19  20661.201241 -16029.718035  -3487.486511    461.366213
PG20   2624.995857 -20254.556066  17124.849367    381.980271
PG21   9956.211230  14716.643833 -19581.812837    129.239245
PG22  11945.167331 -11269.991731 -20512.683721      7.850968
PG23 -16681.346397  -6979.918649 -19497.493564    189.343044
PG24 -12466.801339 -15004.230816 -18613.266471   -453.375301
PG25 -16020.427596 -16549.648647  13111.171465    492.630936
PG26  -8434.763988  16115.241745  19083.422094    173.013848
PG27 -10875.611008  22359.110171  -8985.023688    -15.506024
PG28 -21753.870852   6328.839716  13841.701466   -184.304671
PG29 -15759.174394  -4442.155691  20881.219443   -603.360068
PG30  24837.498452  -2211.212602  -9388.502401   -412.293445
PG31 -13653.285266  11314.827186  19681.105580   -228.021644
PG32 -20394.130979  13789.996328  -9488.388100   -617.261017
PR01   4520.538845  16164.013709  19222.723247     81.123770
PR02  11644.844725  -1102.010220  22726.875705    -22.667426
PR03  12693.596947 -17852.993866  13171.174441     97.328881
PR04   7002.711901 -24306.070676  -3304.990629    229.885158
PR05  -2475.522460 -17860.217846 -18034.724146    129.226002
PR07 -12497.457672  18465.448422 -12298.786409     79.138584
PR08  -6580.567393  24356.305160   3717.321274    -74.909619
PR09 -18698.078919  -9714.741574  14331.591808    178.305779
PR11   2549.800472  16567.043944  19241.935033     29.522401
PR12  15725.195355  19883.407101   2793.140700     38.425766
PR13  18814.684960  12007.873388 -12362.748962    -45.807533
PR14  10397.435071  -4947.078813 -22754.715563     26.299341
PR15  -3609.939691 -17414.467766 -18267.963377     80.906329
PR16 -15726.000052 -19829.256927  -3035.233788     24.417619
PR17  21883.541079  -8661.807020   9800.772561     73.678268
PR18   8304.972351 -11248.356096  21360.696409    134.748967
PR19  -7747.590032  -9041.114972  22554.859517   -271.319147
PR20 -23932.911388   -522.153158   8746.645326   -110.562957
PR21 -21959.162777   8468.027976  -9862.345394    -88.795826
PR22  -7313.463453  11395.497653 -21589.115528    115.037120
PR24  24174.027201   -625.015996  -8091.527424    -49.881775
PR25 -22124.589677   7960.772736  -9904.916013    -26.041501
PR26  -7015.165024  24409.815290   2536.965563    -27.491527
PE02  17969.373744   3835.721161 -23213.649860    115.510754
PE03  22765.002810  -6644.170952  17708.677935   -103.907548
PE04 -20137.922901  21691.874590   -457.453197   -362.089086
PE05  12021.512597  11992.962162  24254.266125   4734.013850
PE07   6182.668218 -23849.478211 -16386.470523   -111.850629
PE08  20496.553506 -21310.807626   1237.915134   -247.279594
PE09  -6348.792535  23832.200698  16386.225193   -389.557363
PE10  -8474.865500  14261.657060 -24520.224190   -613.377899
PE11   3727.555297  16771.177935 -24118.037629   3108.208570
PE12 -18107.699131  10008.076572 -21162.474933   -972.150105
PE13  -2978.094911 -16617.763105  24313.377757    -20.774295
PE14  21469.847737  -4198.524789 -14770.877602     81.437181
PE15  18624.252556  -9647.949808  20897.047678    -94.264735
PE18 -23920.995703  19342.228869   3831.296307    495.573139
PE19 -22130.070272   4605.516480 -19097.261005   -333.865758
PE21 -15521.557566 -22309.162648  11724.372981   -586.698772
PE24   3537.933119  28439.923414   7339.725762   -680.463172
PE25  15367.499647  22586.367465 -11390.851519      2.760809
PE26 -22898.553617 -13614.026535  12897.606633    411.737210
PE27  -3868.904501 -28489.672646  -7066.164124   -312.065042
PE30  10138.107717 -17633.654483 -21525.571836   -148.825953
PE31  -9928.364884  17795.356093  21467.731288    -19.579190
PE33 -29033.495339  -3224.650848  -4766.191080      9.754372
PE34  28988.424078   2822.045270   5281.281198   -102.932540
PE36  22494.130261  13763.268229 -13460.993644   -206.583671
PC06 -10865.620431  23908.441163  32996.582429    310.452924
PC07 -13907.550282  39909.799821  -1117.249686   -865.962380
PC08    644.234012  30199.641429 -29321.676271     17.175844
PC09  -3329.927650  24499.651484  34584.422959   -694.366560
PC10  -7837.590986  40924.851971  -7837.176840     22.290122
PC11   1717.860893  15602.459966 -23008.930384    487.053252
PC12 -18091.906905  16263.081245 -13634.447240   -223.206825
PC13   6973.477919  34182.069546 -23309.383664    428.248484
PC14   1758.660654  26602.587456   8372.292532    528.919432
PC16 -16394.933728  22500.243319  31850.259278   -428.348900
PC19  -7816.105028 -21314.607188 -16177.097561   -916.467023
PC20   3606.477867 -27637.104341   -875.109421   -310.399577
PC21 -13942.452308  17752.677019 -16408.153630   -961.907655
PC22 -15453.710788  -2330.161586 -23116.051484    -55.994726
PC23  24081.256629  10358.809217  -9564.147646   -775.601782
PC24     91.892206  18957.480744  20454.106921    947.511031
PC25  17794.250008  20169.928485   7385.884137    362.594899
PC26 -16536.783544   6795.533549  21415.039063   -270.347723
PC27  23861.149276 -13336.449066   5631.077736    292.102843
PC28  25943.714965  -2417.507760  -9995.243413    223.063954
PC29 -12075.746140 -11819.358455  22199.490439    261.627401
PC30   9021.231631 -18374.945779  18966.403487    -47.107069
PC32  13861.333139 -17721.380590  16516.680824   -592.621371
PC33   7935.109573  21368.226560  16124.429905   -964.577752
PC34  -7273.096305  18292.258517 -19785.806471    401.608417
PC35 -25772.726263   3196.743934  10142.812116    398.582945
PC36 -17145.539608 -20651.989462  -7634.835231     35.762462
PC37  16888.124340  -6187.993953 -21324.697167   -951.205895
PC38  -6448.276791  26361.865871 -32181.285032    145.966307
PC39 -21781.900490  21976.205731  28608.654947     -7.815219
PC40 -20594.351373  36955.001820    887.233137    -63.241577
PC41  15364.690947   3319.318031  23117.064495   -915.331569
PC42  -4553.017248  27542.459140   -674.594176   -444.676323
PC43  11199.799515  12473.421257 -22326.204149     66.109649
PC44 -23351.992180  14227.059234  -5497.590624    429.115257
PC45 -24026.391943 -10448.526559   9634.088716    -78.166444
PC46   -982.039577 -19267.297236 -20185.086964   -136.023131
PC48  -2018.184651 -26518.749399  -8437.488128    152.449317
PJ02 -27094.751679  24966.920827  25549.546357     -3.490020
PJ03 -33120.923887  16619.279948 -15476.281577     -0.132168
PJ04 -20979.635082  33090.880467 -10524.264498     50.563088
EOF
